JILIN-1 GAOFEN 3A       
1 44312U 19032C   26068.74542089  .00016264  00000+0  55381-3 0  9993
2 44312  44.9746 183.2861 0002618 111.2900 248.8263 15.30271310372592
STARLINK-32873          
1 62857U 25022D   26068.41022985  .00010585  00000+0  36901-3 0  9992
2 62857  53.1591 131.1802 0001355  93.2123 266.9033 15.30199058 61854
